*******************************************************************************
 Revised: Sep 13, 2016            Elara   / (Jupiter)                       507

 SATELLITE PHYSICAL PROPERTIES:
  Radius (km)             = 40 +- 10        Density (g cm^-3)   =              
  Mass (10^20 kg )        =                 Geometric Albedo    =   0.03
                                            V(1,0)              = +10.07

 SATELLITE ORBITAL DATA:
  Semi-major axis, a (km) = 11737 (10^3)    Orbital period      = 259.6528 d
  Eccentricity, e         =   0.207         Rotational period   = 0.5 d 
  Inclination, i  (deg)   =  28             Local invar ref. pln= Sun
*******************************************************************************
 
 
*******************************************************************************
Ephemeris / WWW_USER Sat Aug  5 12:00:32 2017 Pasadena, USA      / Horizons    
*******************************************************************************
Target body name: Elara (507)                     {source: jup340_merged}
Center body name: Solar System Barycenter (0)     {source: DE431mx}
Center-site name: BODY CENTER
*******************************************************************************
Start time      : A.D. 2017-Jul-10 00:00:00.0000 TDB
Stop  time      : A.D. 2020-Aug-13 00:00:00.0000 TDB
Step-size       : 1440 minutes
*******************************************************************************
Center geodetic : 0.00000000,0.00000000,0.0000000 {E-lon(deg),Lat(deg),Alt(km)}
Center cylindric: 0.00000000,0.00000000,0.0000000 {E-lon(deg),Dxy(km),Dz(km)}
Center radii    : (undefined)                                                  
Output units    : KM-S                                                         
Output type     : GEOMETRIC cartesian states
Output format   : 3 (position, velocity, LT, range, range-rate)
Reference frame : ICRF/J2000.0                                                 
Coordinate systm: Ecliptic and Mean Equinox of Reference Epoch                 
*******************************************************************************
            JDTDB,            Calendar Date (TDB),                      X,                      Y,                      Z,                     VX,                     VY,                     VZ,                     LT,                     RG,                     RR,
**************************************************************************************************************************************************************************************************************************************************************************
$$SOE
2458673.500000000, A.D. 2019-Jul-09 00:00:00.0000, -1.109697853963595E+08, -7.711311907366097E+08,  1.903585216067135E+06,  1.097459815032277E+01,  8.317590642086961E-01,  7.564013766166275E-01,  2.598721698918017E+03,  7.790771657765682E+08, -2.384621660438552E+00,
2458674.500000000, A.D. 2019-Jul-10 00:00:00.0000, -1.100229057876430E+08, -7.710608170217625E+08,  1.969805744620204E+06,  1.094409501696437E+01,  7.971955680907021E-01,  7.763711151183148E-01,  2.598041860094576E+03,  7.788733552246450E+08, -2.333188173106747E+00,
2458675.500000000, A.D. 2019-Jul-11 00:00:00.0000, -1.090786141854406E+08, -7.709934464646376E+08,  2.037723202108383E+06,  1.091468883246692E+01,  7.622458572598231E-01,  7.956831189845346E-01,  2.597376866801722E+03,  7.786739952508267E+08, -2.281602212910130E+00,
2458676.500000000, A.D. 2019-Jul-12 00:00:00.0000, -1.081368162675200E+08, -7.709291113240011E+08,  2.107281013349175E+06,  1.088636910222870E+01,  7.269354723356299E-01,  8.143432427765687E-01,  2.596726760256712E+03,  7.784790982117366E+08, -2.229882558233711E+00,
2458677.500000000, A.D. 2019-Jul-13 00:00:00.0000, -1.071974186169205E+08, -7.708678416960013E+08,  2.178423110927939E+06,  1.085912532397527E+01,  6.912889076551285E-01,  8.323574161302193E-01,  2.596091576393088E+03,  7.782886748799784E+08, -2.178047065929409E+00,
2458678.500000000, A.D. 2019-Jul-14 00:00:00.0000, -1.062603287313488E+08, -7.708096656045136E+08,  2.251093945295870E+06,  1.083294683581848E+01,  6.553296986239614E-01,  8.497316646063946E-01,  2.595471346130619E+03,  7.781027345250671E+08, -2.126112733641501E+00,
2458679.500000000, A.D. 2019-Jul-15 00:00:00.0000, -1.053254550260112E+08, -7.707546090648949E+08,  2.325238479945540E+06,  1.080782314282899E+01,  6.190808530483703E-01,  8.664717884058160E-01,  2.594866095555074E+03,  7.779212849673185E+08, -2.074096169966056E+00,
2458680.500000000, A.D. 2019-Jul-16 00:00:00.0000, -1.043927068110036E+08, -7.707026961382279E+08,  2.400802174968004E+06,  1.078374389131956E+01,  5.825643774106536E-01,  8.825836517896481E-01,  2.594275846055841E+03,  7.777443326191102E+08, -2.022013116661704E+00,
2458681.500000000, A.D. 2019-Jul-17 00:00:00.0000, -1.034619943139178E+08, -7.706539490571537E+08,  2.477731025390804E+06,  1.076069856055165E+01,  5.458011618541428E-01,  8.980733259972911E-01,  2.593700614722208E+03,  7.775718826036816E+08, -1.969878289318566E+00,
2458682.500000000, A.D. 2019-Jul-18 00:00:00.0000, -1.025332286297614E+08, -7.706083882254884E+08,  2.555971500766873E+06,  1.073867699600621E+01,  5.088118640617755E-01,  9.129464691645673E-01,  2.593140414289821E+03,  7.774039387390835E+08, -1.917706323109801E+00,
2458683.500000000, A.D. 2019-Jul-19 00:00:00.0000, -1.016063217521303E+08, -7.705660323245751E+08,  2.635470591913223E+06,  1.071766876104611E+01,  4.716159582703572E-01,  9.272089822550758E-01,  2.592595253478429E+03,  7.772405036394309E+08, -1.865510738977523E+00,
2458684.500000000, A.D. 2019-Jul-20 00:00:00.0000, -1.006811865691163E+08, -7.705268983886734E+08,  2.716175791252375E+06,  1.069766391406501E+01,  4.342324592246458E-01,  9.408665918792242E-01,  2.592065137211482E+03,  7.770815787807374E+08, -1.813304762059820E+00,
2458685.500000000, A.D. 2019-Jul-21 00:00:00.0000, -9.975773682248247E+07, -7.704910018369648E+08,  2.798035084701836E+06,  1.067865231392275E+01,  3.966794627937694E-01,  9.539250862058302E-01,  2.591550066677481E+03,  7.769271645193059E+08, -1.761100770410556E+00,
2458686.500000000, A.D. 2019-Jul-22 00:00:00.0000, -9.883588713515684E+07, -7.704583565511439E+08,  2.880996954604149E+06,  1.066062385677966E+01,  3.589745884728743E-01,  9.663901191157724E-01,  2.591050039572857E+03,  7.767772601645439E+08, -1.708910763564507E+00,
2458687.500000000, A.D. 2019-Jul-23 00:00:00.0000, -9.791555298625085E+07, -7.704289749071476E+08,  2.965010364194453E+06,  1.064356879677575E+01,  3.211349967887955E-01,  9.782671976780282E-01,  2.590565050170912E+03,  7.766318639996310E+08, -1.656746417613955E+00,
2458688.500000000, A.D. 2019-Jul-24 00:00:00.0000, -9.699665069078715E+07, -7.704028678301265E+08,  3.050024751232922E+06,  1.062747749948977E+01,  2.831771080524219E-01,  9.895618039396588E-01,  2.590095089470923E+03,  7.764909733262178E+08, -1.604618770463532E+00,
2458689.500000000, A.D. 2019-Jul-25 00:00:00.0000, -9.607909739278746E+07, -7.703800448529086E+08,  3.135990024670303E+06,  1.061234043128072E+01,  2.451167740401626E-01,  1.000279348702439E+00,  2.589640145365455E+03,  7.763545845145870E+08, -1.552538388030394E+00,
2458690.500000000, A.D. 2019-Jul-26 00:00:00.0000, -9.516281105066957E+07, -7.703605141579392E+08,  3.222856555894554E+06,  1.059814828661497E+01,  2.069693926031392E-01,  1.010425127781957E+00,  2.589200202750561E+03,  7.762226930366888E+08, -1.500515490964219E+00,
2458691.500000000, A.D. 2019-Jul-27 00:00:00.0000, -9.424771041738373E+07, -7.703442826221502E+08,  3.310575170589924E+06,  1.058489195876473E+01,  1.687497557462130E-01,  1.020004372820276E+00,  2.588775243644441E+03,  7.760952935017158E+08, -1.448559796618447E+00,
2458692.500000000, A.D. 2019-Jul-28 00:00:00.0000, -9.333371502895781E+07, -7.703313558735074E+08,  3.399097145066857E+06,  1.057256241165191E+01,  1.304720025464512E-01,  1.029022279222646E+00,  2.588365247349228E+03,  7.759723797046031E+08, -1.396680453499118E+00,
2458693.500000000, A.D. 2019-Jul-29 00:00:00.0000, -9.242074519971634E+07, -7.703217383384659E+08,  3.488374200684309E+06,  1.056115068250668E+01,  9.214985524399399E-02,  1.037483938213600E+00,  2.587970190586117E+03,  7.758539446665403E+08, -1.344886273882036E+00,
2458694.500000000, A.D. 2019-Jul-30 00:00:00.0000, -9.150872200997470E+07, -7.703154332690501E+08,  3.578358491856098E+06,  1.055064802761532E+01,  5.379677054117832E-02,  1.045394283918871E+00,  2.587590047560579E+03,  7.757399806545228E+08, -1.293185899265399E+00,
2458695.500000000, A.D. 2019-Jul-31 00:00:00.0000, -9.059756728333674E+07, -7.703124427731240E+08,  3.669002594582379E+06,  1.054104597394901E+01,  1.542572502980255E-02,  1.052758158206742E+00,  2.587224790034835E+03,  7.756304792030772E+08, -1.241587589964704E+00,
2458696.500000000, A.D. 2019-Aug-01 00:00:00.0000, -8.968720356886436E+07, -7.703127678639454E+08,  3.760259501447797E+06,  1.053233617122576E+01, -2.295088351347790E-02,  1.059580354064784E+00,  2.586874387467152E+03,  7.755254311560220E+08, -1.190099106318858E+00,
2458697.500000000, A.D. 2019-Aug-02 00:00:00.0000, -8.877755413465428E+07, -7.703164084917570E+08,  3.852082612374008E+06,  1.052451035145353E+01, -6.132075417255822E-02,  1.065865480521427E+00,  2.586538807096805E+03,  7.754248266919389E+08, -1.138728181078519E+00,
2458698.500000000, A.D. 2019-Aug-03 00:00:00.0000, -8.786854294850893E+07, -7.703233635499935E+08,  3.944425718197584E+06,  1.051756064676594E+01, -9.967195103210141E-02,  1.071618046926051E+00,  2.586218013940475E+03,  7.753286553230932E+08, -1.087482286718171E+00,
2458699.500000000, A.D. 2019-Aug-04 00:00:00.0000, -8.696009464183465E+07, -7.703336309588131E+08,  4.037243007667601E+06,  1.051147938766409E+01, -1.379933474459660E-01,  1.076842580321656E+00,  2.585911971039839E+03,  7.752369059696581E+08, -1.036368166461407E+00,
